ORBCOMM FM37 [-]        
1 33064U 08031E   24092.54946675  .00002496  00000+0  38678-3 0  9996
2 33064  48.4392 277.3508 0006272 281.5888 119.2587 14.76153829848725
ORBCOMM FM40 [-]        
1 33065U 08031F   24093.52671542  .00002697  00000+0  40346-3 0  9992
2 33065  48.4413 262.4639 0007560 293.9222 106.6573 14.77438587849342
VESSELSAT 1 [-]         
1 37840U 11058C   24093.52922330  .00000426  00000+0  88374-4 0  9996
2 37840  19.9613 239.8542 0013781  20.5901 339.5057 14.11132683644212
ORBCOMM FM109 [+]       
1 40086U 14040A   24093.50407009  .00000881  00000+0  23378-3 0  9992
2 40086  47.0038 294.9110 0001368 100.8272 259.2766 14.56440324516907
ORBCOMM FM107 [+]       
1 40087U 14040B   24092.98967396  .00001023  00000+0  26541-3 0  9998
2 40087  47.0052 298.2955 0000892  42.7069 317.3886 14.56443609516826
ORBCOMM FM106 [-]       
1 40088U 14040C   24093.45889616  .00001360  00000+0  27355-3 0  9998
2 40088  47.0590 152.0243 0017886 185.4337 174.6362 14.66816991518920
ORBCOMM FM111 [-]       
1 40089U 14040D   24093.19156684  .00003041  00000+0  40694-3 0  9991
2 40089  47.0044  58.8199 0033571 248.7564 110.9744 14.81439168524739
ORBCOMM FM104 [-]       
1 40090U 14040E   24092.78448382  .00000976  00000+0  26280-3 0  9995
2 40090  47.0063 327.7477 0017156 347.8942  12.1528 14.54996174516404
